{
  "type": "FeatureCollection",
  "features": [
    {
      "type": "Feature",
      "properties": {
        "norad_id": 42988,
        "name": "SKYSAT-C10",
        "group": "resource",
        "lat": 71.12675153732197,
        "lon": 86.98022003274077,
        "alt_km": 460.1601707877371,
        "timestamp": "2025-12-04T13:52:00.105618+00:00",
        "meta_object_name": "SKYSAT-C10",
        "meta_object_id": "2017-068B",
        "meta_epoch": "2025-12-03T21:52:31.155744",
        "meta_mean_motion": 15.32008568,
        "meta_eccentricity": 0.0005511,
        "meta_inclination": 97.4257,
        "meta_ra_of_asc_node": 108.7403,
        "meta_arg_of_pericenter": 118.6562,
        "meta_mean_anomaly": 241.5234,
        "meta_ephemeris_type": 0,
        "meta_classification_type": "U",
        "meta_norad_cat_id": 42988,
        "meta_element_set_no": 999,
        "meta_rev_at_epoch": 45244,
        "meta_bstar": 0.00065499,
        "meta_mean_motion_dot": 0.00020203,
        "meta_mean_motion_ddot": 0,
        "tle_line1": "1 42988U 17068B   25337.91147171  .00020203  00000+0  65499-3 0  9996",
        "tle_line2": "2 42988  97.4257 108.7403 0005511 118.6562 241.5234 15.32008568452449"
      },
      "geometry": {
        "type": "Point",
        "coordinates": [
          86.98022003274077,
          71.12675153732197
        ]
      }
    },
    {
      "type": "Feature",
      "properties": {
        "norad_id": 42989,
        "name": "SKYSAT-C9",
        "group": "resource",
        "lat": 16.131048707388175,
        "lon": -69.07077403486227,
        "alt_km": 454.7883469622175,
        "timestamp": "2025-12-04T13:52:00.105628+00:00",
        "meta_object_name": "SKYSAT-C9",
        "meta_object_id": "2017-068C",
        "meta_epoch": "2025-12-04T06:54:08.013600",
        "meta_mean_motion": 15.35714834,
        "meta_eccentricity": 0.00106594,
        "meta_inclination": 97.4184,
        "meta_ra_of_asc_node": 108.4773,
        "meta_arg_of_pericenter": 115.2431,
        "meta_mean_anomaly": 244.9919,
        "meta_ephemeris_type": 0,
        "meta_classification_type": "U",
        "meta_norad_cat_id": 42989,
        "meta_element_set_no": 999,
        "meta_rev_at_epoch": 45278,
        "meta_bstar": 0.00078064575,
        "meta_mean_motion_dot": 0.00027146,
        "meta_mean_motion_ddot": 0,
        "tle_line1": "1 42989U 17068C   25338.28759275  .00027146  00000+0  78065-3 0  9998",
        "tle_line2": "2 42989  97.4184 108.4773 0010659 115.2431 244.9919 15.35714834452780"
      },
      "geometry": {
        "type": "Point",
        "coordinates": [
          -69.07077403486227,
          16.131048707388175
        ]
      }
    },
    {
      "type": "Feature",
      "properties": {
        "norad_id": 42990,
        "name": "SKYSAT-C8",
        "group": "resource",
        "lat": -45.115993674572856,
        "lon": -78.98227819198912,
        "alt_km": 475.9778163443834,
        "timestamp": "2025-12-04T13:52:00.105638+00:00",
        "meta_object_name": "SKYSAT-C8",
        "meta_object_id": "2017-068D",
        "meta_epoch": "2025-12-04T06:37:04.445760",
        "meta_mean_motion": 15.32632243,
        "meta_eccentricity": 0.00020939,
        "meta_inclination": 97.4277,
        "meta_ra_of_asc_node": 108.2414,
        "meta_arg_of_pericenter": 18.0592,
        "meta_mean_anomaly": 342.0724,
        "meta_ephemeris_type": 0,
        "meta_classification_type": "U",
        "meta_norad_cat_id": 42990,
        "meta_element_set_no": 999,
        "meta_rev_at_epoch": 45241,
        "meta_bstar": 0.00072857745,
        "meta_mean_motion_dot": 0.00022924,
        "meta_mean_motion_ddot": 0,
        "tle_line1": "1 42990U 17068D   25338.27574590  .00022924  00000+0  72858-3 0  9997",
        "tle_line2": "2 42990  97.4277 108.2414 0002093  18.0592 342.0724 15.32632243452410"
      },
      "geometry": {
        "type": "Point",
        "coordinates": [
          -78.98227819198912,
          -45.115993674572856
        ]
      }
    },
    {
      "type": "Feature",
      "properties": {
        "norad_id": 42991,
        "name": "SKYSAT-C7",
        "group": "resource",
        "lat": 78.81370323782522,
        "lon": -29.125675998174216,
        "alt_km": 457.16099071003737,
        "timestamp": "2025-12-04T13:52:00.105648+00:00",
        "meta_object_name": "SKYSAT-C7",
        "meta_object_id": "2017-068E",
        "meta_epoch": "2025-12-04T07:10:09.301728",
        "meta_mean_motion": 15.32041519,
        "meta_eccentricity": 0.00078916,
        "meta_inclination": 97.4284,
        "meta_ra_of_asc_node": 109.3124,
        "meta_arg_of_pericenter": 83.5266,
        "meta_mean_anomaly": 276.6874,
        "meta_ephemeris_type": 0,
        "meta_classification_type": "U",
        "meta_norad_cat_id": 42991,
        "meta_element_set_no": 999,
        "meta_rev_at_epoch": 45248,
        "meta_bstar": 0.00074278857,
        "meta_mean_motion_dot": 0.00022965,
        "meta_mean_motion_ddot": 0,
        "tle_line1": "1 42991U 17068E   25338.29871877  .00022965  00000+0  74279-3 0  9992",
        "tle_line2": "2 42991  97.4284 109.3124 0007891  83.5266 276.6874 15.32041519452480"
      },
      "geometry": {
        "type": "Point",
        "coordinates": [
          -29.125675998174216,
          78.81370323782522
        ]
      }
    },
    {
      "type": "Feature",
      "properties": {
        "norad_id": 42992,
        "name": "SKYSAT-C6",
        "group": "resource",
        "lat": -58.92408228049489,
        "lon": -82.47160679255587,
        "alt_km": 481.78797025568383,
        "timestamp": "2025-12-04T13:52:00.105658+00:00",
        "meta_object_name": "SKYSAT-C6",
        "meta_object_id": "2017-068F",
        "meta_epoch": "2025-12-03T21:08:22.276032",
        "meta_mean_motion": 15.31198589,
        "meta_eccentricity": 0.0005146,
        "meta_inclination": 97.4317,
        "meta_ra_of_asc_node": 109.3389,
        "meta_arg_of_pericenter": 107.6681,
        "meta_mean_anomaly": 252.5122,
        "meta_ephemeris_type": 0,
        "meta_classification_type": "U",
        "meta_norad_cat_id": 42992,
        "meta_element_set_no": 999,
        "meta_rev_at_epoch": 45240,
        "meta_bstar": 0.00062176,
        "meta_mean_motion_dot": 0.00018692,
        "meta_mean_motion_ddot": 0,
        "tle_line1": "1 42992U 17068F   25337.88081338  .00018692  00000+0  62176-3 0  9997",
        "tle_line2": "2 42992  97.4317 109.3389 0005146 107.6681 252.5122 15.31198589452401"
      },
      "geometry": {
        "type": "Point",
        "coordinates": [
          -82.47160679255587,
          -58.92408228049489
        ]
      }
    },
    {
      "type": "Feature",
      "properties": {
        "norad_id": 43111,
        "name": "CARTOSAT-2F",
        "group": "resource",
        "lat": -17.370202110861708,
        "lon": 38.688022549564394,
        "alt_km": 513.5419922184792,
        "timestamp": "2025-12-04T13:52:00.105668+00:00",
        "meta_object_name": "CARTOSAT-2F",
        "meta_object_id": "2018-004A",
        "meta_epoch": "2025-12-04T07:37:16.441824",
        "meta_mean_motion": 15.19374717,
        "meta_eccentricity": 0.000122,
        "meta_inclination": 97.4332,
        "meta_ra_of_asc_node": 36.0913,
        "meta_arg_of_pericenter": 185.7698,
        "meta_mean_anomaly": 174.3523,
        "meta_ephemeris_type": 0,
        "meta_classification_type": "U",
        "meta_norad_cat_id": 43111,
        "meta_element_set_no": 999,
        "meta_rev_at_epoch": 43774,
        "meta_bstar": 8.8432e-05,
        "meta_mean_motion_dot": 1.802e-05,
        "meta_mean_motion_ddot": 0,
        "tle_line1": "1 43111U 18004A   25338.31755141  .00001802  00000+0  88432-4 0  9990",
        "tle_line2": "2 43111  97.4332  36.0913 0001220 185.7698 174.3523 15.19374717437746"
      },
      "geometry": {
        "type": "Point",
        "coordinates": [
          38.688022549564394,
          -17.370202110861708
        ]
      }
    },
    {
      "type": "Feature",
      "properties": {
        "norad_id": 43259,
        "name": "GAOFEN-1 02",
        "group": "resource",
        "lat": -74.97063236632789,
        "lon": 68.31567060591591,
        "alt_km": 647.0597651669877,
        "timestamp": "2025-12-04T13:52:00.105678+00:00",
        "meta_object_name": "GAOFEN-1 02",
        "meta_object_id": "2018-031A",
        "meta_epoch": "2025-12-04T07:42:37.022112",
        "meta_mean_motion": 14.76453909,
        "meta_eccentricity": 0.00013199,
        "meta_inclination": 98.0818,
        "meta_ra_of_asc_node": 36.1069,
        "meta_arg_of_pericenter": 252.6927,
        "meta_mean_anomaly": 107.4138,
        "meta_ephemeris_type": 0,
        "meta_classification_type": "U",
        "meta_norad_cat_id": 43259,
        "meta_element_set_no": 999,
        "meta_rev_at_epoch": 41394,
        "meta_bstar": 0.00028663175,
        "meta_mean_motion_dot": 1.943e-05,
        "meta_mean_motion_ddot": 0,
        "tle_line1": "1 43259U 18031A   25338.32126183  .00001943  00000+0  28663-3 0  9997",
        "tle_line2": "2 43259  98.0818  36.1069 0001319 252.6927 107.4138 14.76453909413944"
      },
      "geometry": {
        "type": "Point",
        "coordinates": [
          68.31567060591591,
          -74.97063236632789
        ]
      }
    }
  ]
}